Satellite: AO-07
Catalog number: 7530
Epoch time: 17252.519771
Element set: 999
Inclination: 101.640000 deg
RA of node: 219.571800 deg
Eccentricity: 0.001207
Arg of perigee: 156.788400 deg
Mean anomaly: 314.156200 deg
Mean motion: 12.536286 rev/day
Decay rate: -3.700000e-07 rev/day^2
Epoch rev: 9591

Satellite: UO-11
Catalog number: 14781
Epoch time: 17252.580424
Element set: 999
Inclination: 97.689300 deg
RA of node: 295.149100 deg
Eccentricity: 0.000706
Arg of perigee: 285.916700 deg
Mean anomaly: 74.126800 deg
Mean motion: 14.829282 rev/day
Decay rate: 4.650000e-06 rev/day^2
Epoch rev: 7818

Satellite: LO-19
Catalog number: 20442
Epoch time: 17252.429132
Element set: 999
Inclination: 98.578700 deg
RA of node: 188.101900 deg
Eccentricity: 0.001060
Arg of perigee: 258.497700 deg
Mean anomaly: 101.501600 deg
Mean motion: 14.328692 rev/day
Decay rate: 3.800000e-07 rev/day^2
Epoch rev: 4436

Satellite: HUBBLE
Catalog number: 20580
Epoch time: 17252.880733
Element set: 999
Inclination: 28.469100 deg
RA of node: 167.856300 deg
Eccentricity: 0.000266
Arg of perigee: 8.479800 deg
Mean anomaly: 64.920200 deg
Mean motion: 15.088433 rev/day
Decay rate: 1.268000e-05 rev/day^2
Epoch rev: 3030

Satellite: MET-2/21
Catalog number: 22782
Epoch time: 17252.628833
Element set: 999
Inclination: 82.549900 deg
RA of node: 316.576800 deg
Eccentricity: 0.002220
Arg of perigee: 190.905500 deg
Mean anomaly: 280.716600 deg
Mean motion: 13.838024 rev/day
Decay rate: -2.500000e-07 rev/day^2
Epoch rev: 2131

Satellite: AO-27
Catalog number: 22825
Epoch time: 17252.506129
Element set: 999
Inclination: 98.821300 deg
RA of node: 219.163100 deg
Eccentricity: 0.000954
Arg of perigee: 85.726200 deg
Mean anomaly: 274.501000 deg
Mean motion: 14.300053 rev/day
Decay rate: 2.200000e-07 rev/day^2
Epoch rev: 2491

Satellite: IO-26
Catalog number: 22826
Epoch time: 17252.517805
Element set: 999
Inclination: 98.815600 deg
RA of node: 219.246900 deg
Eccentricity: 0.001004
Arg of perigee: 76.840300 deg
Mean anomaly: 283.389900 deg
Mean motion: 14.303349 rev/day
Decay rate: 5.900000e-07 rev/day^2
Epoch rev: 2493

Satellite: FO-29
Catalog number: 24278
Epoch time: 17252.609975
Element set: 999
Inclination: 98.549600 deg
RA of node: 124.586000 deg
Eccentricity: 0.035121
Arg of perigee: 118.553100 deg
Mean anomaly: 245.143300 deg
Mean motion: 13.530781 rev/day
Decay rate: 1.200000e-07 rev/day^2
Epoch rev: 400

Satellite: NOAA-15
Catalog number: 25338
Epoch time: 17252.565756
Element set: 999
Inclination: 98.781800 deg
RA of node: 263.643200 deg
Eccentricity: 0.000989
Arg of perigee: 327.272600 deg
Mean anomaly: 32.783900 deg
Mean motion: 14.258153 rev/day
Decay rate: 7.700000e-07 rev/day^2
Epoch rev: 47

Satellite: GO-32
Catalog number: 25397
Epoch time: 17252.393971
Element set: 999
Inclination: 98.614700 deg
RA of node: 192.976700 deg
Eccentricity: 0.000235
Arg of perigee: 101.916600 deg
Mean anomaly: 258.227600 deg
Mean motion: 14.236280 rev/day
Decay rate: 1.700000e-07 rev/day^2
Epoch rev: 9957

Satellite: NO-44
Catalog number: 26931
Epoch time: 17252.358942
Element set: 999
Inclination: 67.049600 deg
RA of node: 234.018500 deg
Eccentricity: 0.000666
Arg of perigee: 257.073000 deg
Mean anomaly: 102.962700 deg
Mean motion: 14.304727 rev/day
Decay rate: 4.000000e-08 rev/day^2
Epoch rev: 8323

Satellite: SO-50
Catalog number: 27607
Epoch time: 17252.394720
Element set: 999
Inclination: 64.554300 deg
RA of node: 228.233100 deg
Eccentricity: 0.003240
Arg of perigee: 54.079100 deg
Mean anomaly: 306.331000 deg
Mean motion: 14.753580 rev/day
Decay rate: 2.860000e-06 rev/day^2
Epoch rev: 7914

Satellite: CO-55
Catalog number: 27844
Epoch time: 17252.578536
Element set: 999
Inclination: 98.690400 deg
RA of node: 260.359400 deg
Eccentricity: 0.001092
Arg of perigee: 102.033800 deg
Mean anomaly: 258.206500 deg
Mean motion: 14.220583 rev/day
Decay rate: 1.560000e-06 rev/day^2
Epoch rev: 7362

Satellite: CO-57
Catalog number: 27848
Epoch time: 17252.601227
Element set: 999
Inclination: 98.699700 deg
RA of node: 260.675800 deg
Eccentricity: 0.001077
Arg of perigee: 110.568500 deg
Mean anomaly: 249.664800 deg
Mean motion: 14.216703 rev/day
Decay rate: 1.200000e-06 rev/day^2
Epoch rev: 7361

Satellite: RS-22
Catalog number: 27939
Epoch time: 17252.862777
Element set: 999
Inclination: 97.951600 deg
RA of node: 34.932600 deg
Eccentricity: 0.001206
Arg of perigee: 322.524800 deg
Mean anomaly: 190.987000 deg
Mean motion: 14.665976 rev/day
Decay rate: 4.300000e-06 rev/day^2
Epoch rev: 7457

Satellite: NOAA-18
Catalog number: 28654
Epoch time: 17252.570618
Element set: 999
Inclination: 99.178700 deg
RA of node: 276.830600 deg
Eccentricity: 0.001416
Arg of perigee: 191.197300 deg
Mean anomaly: 168.888400 deg
Mean motion: 14.123483 rev/day
Decay rate: 6.500000e-07 rev/day^2
Epoch rev: 6340

Satellite: CO-58
Catalog number: 28895
Epoch time: 17252.410670
Element set: 999
Inclination: 97.874800 deg
RA of node: 50.867800 deg
Eccentricity: 0.001573
Arg of perigee: 234.445100 deg
Mean anomaly: 125.528600 deg
Mean motion: 14.634327 rev/day
Decay rate: 3.890000e-06 rev/day^2
Epoch rev: 6328

Satellite: Falconsat-3
Catalog number: 30776
Epoch time: 17252.399700
Element set: 999
Inclination: 35.434900 deg
RA of node: 252.206200 deg
Eccentricity: 0.000275
Arg of perigee: 344.101100 deg
Mean anomaly: 15.962800 deg
Mean motion: 15.327440 rev/day
Decay rate: 8.269000e-05 rev/day^2
Epoch rev: 5811

Satellite: CO-65
Catalog number: 32785
Epoch time: 17252.506686
Element set: 999
Inclination: 97.563200 deg
RA of node: 272.914200 deg
Eccentricity: 0.001166
Arg of perigee: 246.325600 deg
Mean anomaly: 113.673800 deg
Mean motion: 14.879441 rev/day
Decay rate: 7.040000e-06 rev/day^2
Epoch rev: 5073

Satellite: AAUSAT2
Catalog number: 32788
Epoch time: 17252.628192
Element set: 999
Inclination: 97.552900 deg
RA of node: 285.406400 deg
Eccentricity: 0.001138
Arg of perigee: 201.035600 deg
Mean anomaly: 159.039800 deg
Mean motion: 14.939826 rev/day
Decay rate: 2.275000e-05 rev/day^2
Epoch rev: 5082

