DECODE 2-LINE ELSETS WITH THE FOLLOWING KEY:
1 AAAAAU 00  0  0 BBBBB.BBBBBBBB  .CCCCCCCC  00000-0  00000-0 0  DDDZ
2 AAAAA EEE.EEEE FFF.FFFF GGGGGGG HHH.HHHH III.IIII JJ.JJJJJJJJKKKKKZ
KEY: A-CATALOGNUM B-EPOCHTIME C-DECAY D-ELSETNUM E-INCLINATION F-RAAN
G-ECCENTRICITY H-ARGPERIGEE I-MNANOM J-MNMOTION K-ORBITNUM Z-CHECKSUM

TO ALL RADIO AMATEURS BT

AO-07
1 07530U 74089B   17252.51977128 -.00000037  00000-0  45762-4 0  9999
2 07530 101.6400 219.5718 0012066 156.7884 314.1562 12.53628583959194
UO-11
1 14781U 84021B   17252.58042388  .00000465  00000-0  63587-4 0  9999
2 14781 097.6893 295.1491 0007065 285.9167 074.1268 14.82928186781858
LO-19
1 20442U 90005G   17252.42913195  .00000038  00000-0  29880-4 0  9999
2 20442  98.5787 188.1019 0010602 258.4977 101.5016 14.32869165443681
HUBBLE
1 20580U 90037B   17252.88073295  .00001268  00000-0  67426-4 0  9999
2 20580  28.4691 167.8563 0002662   8.4798  64.9202 15.08843335303082
MET-2/21
1 22782U 93055A   17252.62883286 -.00000025  00000-0 -35692-4 0  9991
2 22782 082.5499 316.5768 0022196 190.9055 280.7166 13.83802421213104
AO-27
1 22825U 93061C   17252.50612852  .00000022  00000-0  26199-4 0  9999
2 22825 098.8213 219.1631 0009544 085.7262 274.5010 14.30005283249186
IO-26
1 22826U 93061D   17252.51780490  .00000059  00000-0  40463-4 0  9995
2 22826 098.8156 219.2469 0010043 076.8403 283.3899 14.30334932249388
FO-29
1 24278U 96046B   17252.60997525  .00000012  00000-0  45124-4 0  9991
2 24278 098.5496 124.5860 0351215 118.5531 245.1433 13.53078089040047
NOAA-15
1 25338U 98030A   17252.56575551  .00000077  00000-0  51124-4 0  9998
2 25338 098.7818 263.6432 0009894 327.2726 032.7839 14.25815330004771
GO-32
1 25397U 98043D   17252.39397086  .00000017  00000-0  26634-4 0  9995
2 25397  98.6147 192.9767 0002350 101.9166 258.2276 14.23628047995774
NO-44
1 26931U 01043C   17252.35894238  .00000004  00000-0  33426-4 0  9994
2 26931 067.0496 234.0185 0006662 257.0730 102.9627 14.30472651832319
SO-50
1 27607U 02058C   17252.39472005  .00000286  00000-0  62143-4 0  9990
2 27607 064.5543 228.2331 0032401 054.0791 306.3310 14.75358046791408
CO-55
1 27844U 03031E   17252.57853569  .00000156  00000-0  90386-4 0  9999
2 27844 098.6904 260.3594 0010925 102.0338 258.2065 14.22058270736270
CO-57
1 27848U 03031J   17252.60122721  .00000120  00000-0  74399-4 0  9993
2 27848 098.6997 260.6758 0010767 110.5685 249.6648 14.21670289736162
RS-22
1 27939U 03042A   17252.86277684  .00000430  00000-0  85757-4 0  9997
2 27939  97.9516  34.9326 0012060 322.5248 190.9870 14.66597611745726
NOAA-18
1 28654U 05018A   17252.57061825  .00000065  00000-0  60743-4 0  9995
2 28654 099.1787 276.8306 0014161 191.1973 168.8884 14.12348307634070
CO-58
1 28895U 05043F   17252.41066953  .00000389  00000-0  83813-4 0  9992
2 28895 097.8748 050.8678 0015728 234.4451 125.5286 14.63432690632803
Falconsat-3
1 30776U 07006E   17252.39969981  .00008269  00000-0  25626-3 0  9996
2 30776 035.4349 252.2062 0002746 344.1011 015.9628 15.32744016581182
CO-65
1 32785U 08021C   17252.50668638  .00000704  00000-0  82358-4 0  9996
2 32785 097.5632 272.9142 0011663 246.3256 113.6738 14.87944098507365
AAUSAT2
1 32788U 08021F   17252.62819164  .00002275  00000-0  21838-3 0  9994
2 32788  97.5529 285.4064 0011377 201.0356 159.0398 14.93982551508287
